STARLINK-31854          
1 59671U 24084T   26189.94005868  .00002974  00000+0  11753-3 0  9993
2 59671  43.0013  44.0101 0001401 258.5834 101.4860 15.27586972123279
STARLINK-31842          
1 59672U 24084U   26189.40318294  .00001118  00000+0  50143-4 0  9991
2 59672  43.0020  76.7023 0000170 313.5482  46.5356 15.27574319122872
STARLINK-31871          
1 59673U 24084V   26189.38984908  .00002126  00000+0  86715-4 0  9994
2 59673  42.9974  80.0519 0001053 268.0653  92.0078 15.27590750122832
STARLINK-31875          
1 59674U 24084W   26189.91082331  .00000648  00000+0  33052-4 0  9996
2 59674  43.0022  73.6327 0001043 278.9037  81.1697 15.27607745122951
STARLINK-31877          
1 59675U 24084X   26189.40526335 -.00000007  00000+0  92517-5 0  9990
2 59675  43.0020  80.1748 0000839 266.5856  93.4899 15.27574815122832
STARLINK-31884          
1 59676U 24084Y   26189.39370948  .00005979  00000+0  22647-3 0  9993
2 59676  43.0021  80.1079 0000696  53.4187 306.6729 15.27598562122838
STARLINK-32108          
1 59682U 24086A   26189.93969261  .00001203  00000+0  53241-4 0  9995
2 59682  43.0035  98.7471 0001319 245.6107 114.4608 15.27586934122607
STARLINK-32080          
1 59683U 24086B   26189.11153714  .00000968  00000+0  44708-4 0  9999
2 59683  43.0008 103.7173 0001512 265.2985  94.7694 15.27572631122492
STARLINK-32091          
1 59684U 24086C   26189.75127864 -.00000039  00000+0  81221-5 0  9999
2 59684  43.0030  88.7104 0001534 274.3017  85.7660 15.27575533122728
STARLINK-32085          
1 59685U 24086D   26189.07731817 -.00000510  00000+0 -90097-5 0  9990
2 59685  43.0048 100.0316 0001175 272.4999  87.5718 15.27571448122523
STARLINK-32100          
1 59686U 24086E   26189.42577429  .00001758  00000+0  73431-4 0  9992
2 59686  43.0047  79.9399 0001348 256.4793 103.5909 15.27569875122784
STARLINK-32089          
1 59687U 24086F   26189.45421323  .00001861  00000+0  77161-4 0  9996
2 59687  43.0095  97.7039 0003040 267.1976  92.8528 15.27579318122588
STARLINK-32103          
1 59688U 24086G   26189.12745746  .00001324  00000+0  57608-4 0  9997
2 59688  43.0014  89.1696 0001207 286.6700  73.4019 15.27589595122654
STARLINK-32105          
1 59689U 24086H   26189.44778136 -.00000390  00000+0 -46127-5 0  9991
2 59689  43.0076  97.6511 0003850 262.0090  98.0325 15.27587061122580
STARLINK-32106          
1 59690U 24086J   26189.93586930  .00001332  00000+0  57938-4 0  9992
2 59690  43.0004  87.5058 0001509 297.1311  62.9386 15.27578011122741
STARLINK-32090          
1 59691U 24086K   26188.12688662 -.00001320  00000+0 -38455-4 0  9990
2 59691  43.0005 109.2521 0000681 301.0219  59.0566 15.27576517122333
STARLINK-32088          
1 59693U 24086M   26189.42045245  .00027238  00000+0  99561-3 0  9998
2 59693  43.0011  90.5275 0001473   0.0132   0.0720 15.27582244122668
STARLINK-32107          
1 59694U 24086N   26187.98379377  .00010147  00000+0  37887-3 0  9998
2 59694  43.0018 106.4428 0000642 228.0139 132.0658 15.27480617122352
STARLINK-32104          
1 59695U 24086P   26189.42144673  .00001928  00000+0  79577-4 0  9999
2 59695  43.0043  94.7759 0000798 344.3494  15.7333 15.27572279122617
STARLINK-32094          
1 59696U 24086Q   26189.94918328  .00001052  00000+0  47748-4 0  9996
2 59696  43.0036  95.3919 0001360 279.2477  80.8221 15.27581999122650
STARLINK-32099          
1 59697U 24086R   26189.45164440 -.00000834  00000+0 -20786-4 0  9993
2 59697  43.0062  97.6804 0001446 272.4931  87.5756 15.27589315122582
STARLINK-32096          
1 59698U 24086S   26189.46577962 -.00001483  00000+0 -44350-4 0  9996
2 59698  43.0035  97.7872 0001084 290.7726  69.3009 15.27596031122584
STARLINK-32102          
1 59699U 24086T   26189.45807197  .00005653  00000+0  21471-3 0  9991
2 59699  43.0017  97.7319 0000642 297.3182  62.7604 15.27592118122589
STARLINK-32092          
1 59700U 24086U   26189.93376410  .00000440  00000+0  25500-4 0  9993
2 59700  43.0042  95.2774 0001582 265.4244  94.6427 15.27584948122654
STARLINK-32093          
1 59701U 24086V   26189.93119056  .00001332  00000+0  57928-4 0  9995
2 59701  43.0069  95.2585 0001483 272.0192  88.0490 15.27574622122655
STARLINK-32087          
1 59702U 24086W   26189.46192406 -.00000442  00000+0 -65454-5 0  9991
2 59702  43.0066  97.7556 0001087 282.8198  77.2532 15.27596667122585
STARLINK-32086          
1 59703U 24086X   26189.91668981 -.00024630  00000+0 -88803-3 0  9994
2 59703  42.9998  94.9563 0001351 265.9247 177.0010 15.27596795  5869
STARLINK-32098          
1 59704U 24086Y   26187.97992248 -.00003939  00000+0 -13379-3 0  9990
2 59704  43.0023 106.4135 0001044 280.7545  79.3189 15.27557089122358
STARLINK-11107 [DTC]    
1 59708U 24088A   26189.89762759  .00002297  00000+0  23800-4 0  9996
2 59708  53.1576  88.4533 0000673  83.1252 276.9842 15.69716543125290
STARLINK-11088 [DTC]    
1 59709U 24088B   26189.95158549 -.00000100  00000+0  40486-5 0  9992
2 59709  53.1563  88.7977 0002341 156.9028 203.2095 15.69722625125310
