OBJECT_NAME,OBJECT_ID,EPOCH,MEAN_MOTION,ECCENTRICITY,INCLINATION,RA_OF_ASC_NODE,ARG_OF_PERICENTER,MEAN_ANOMALY,EPHEMERIS_TYPE,CLASSIFICATION_TYPE,NORAD_CAT_ID,ELEMENT_SET_NO,REV_AT_EPOCH,BSTAR,MEAN_MOTION_DOT,MEAN_MOTION_DDOT
STARLINK-31854,2024-084T,2026-07-08T22:33:41.069952,15.27586972,.00014013,43.0013,44.0101,258.5834,101.4860,0,U,59671,999,12327,.11752652E-3,.2974E-4,0
STARLINK-31842,2024-084U,2026-07-08T09:40:35.006016,15.27574319,.00001705,43.0020,76.7023,313.5482,46.5356,0,U,59672,999,12287,.50142729E-4,.1118E-4,0
STARLINK-31871,2024-084V,2026-07-08T09:21:22.960512,15.27590750,.00010538,42.9974,80.0519,268.0653,92.0078,0,U,59673,999,12283,.8671458E-4,.2126E-4,0
STARLINK-31875,2024-084W,2026-07-08T21:51:35.133984,15.27607745,.00010436,43.0022,73.6327,278.9037,81.1697,0,U,59674,999,12295,.33052409E-4,.648E-5,0
STARLINK-31877,2024-084X,2026-07-08T09:43:34.753440,15.27574815,.00008392,43.0020,80.1748,266.5856,93.4899,0,U,59675,999,12283,.9251688E-5,-.7E-7,0
STARLINK-31884,2024-084Y,2026-07-08T09:26:56.499072,15.27598562,.00006963,43.0021,80.1079,53.4187,306.6729,0,U,59676,999,12283,.22647244E-3,.5979E-4,0
STARLINK-32108,2024-086A,2026-07-08T22:33:09.441504,15.27586934,.00013194,43.0035,98.7471,245.6107,114.4608,0,U,59682,999,12260,.53240733E-4,.1203E-4,0
STARLINK-32080,2024-086B,2026-07-08T02:40:36.808896,15.27572631,.00015124,43.0008,103.7173,265.2985,94.7694,0,U,59683,999,12249,.4470825E-4,.968E-5,0
STARLINK-32091,2024-086C,2026-07-08T18:01:50.474496,15.27575533,.00015343,43.0030,88.7104,274.3017,85.7660,0,U,59684,999,12272,.8122141E-5,-.39E-6,0
STARLINK-32085,2024-086D,2026-07-08T01:51:20.289888,15.27571448,.00011753,43.0048,100.0316,272.4999,87.5718,0,U,59685,999,12252,-.9009742E-5,-.51E-5,0
STARLINK-32100,2024-086E,2026-07-08T10:13:06.898656,15.27569875,.00013488,43.0047,79.9399,256.4793,103.5909,0,U,59686,999,12278,.73431456E-4,.1758E-4,0
STARLINK-32089,2024-086F,2026-07-08T10:54:04.023072,15.27579318,.00030403,43.0095,97.7039,267.1976,92.8528,0,U,59687,999,12258,.77160785E-4,.1861E-4,0
STARLINK-32103,2024-086G,2026-07-08T03:03:32.324544,15.27589595,.00012078,43.0014,89.1696,286.6700,73.4019,0,U,59688,999,12265,.57607794E-4,.1324E-4,0
STARLINK-32105,2024-086H,2026-07-08T10:44:48.309504,15.27587061,.00038503,43.0076,97.6511,262.0090,98.0325,0,U,59689,999,12258,-.4612706E-5,-.39E-5,0
STARLINK-32106,2024-086J,2026-07-08T22:27:39.107520,15.27578011,.00015095,43.0004,87.5058,297.1311,62.9386,0,U,59690,999,12274,.5793832E-4,.1332E-4,0
STARLINK-32090,2024-086K,2026-07-07T03:02:43.003968,15.27576517,.00006811,43.0005,109.2521,301.0219,59.0566,0,U,59691,999,12233,-.38454589E-4,-.132E-4,0
STARLINK-32088,2024-086M,2026-07-08T10:05:27.091680,15.27582244,.00014734,43.0011,90.5275,0.0132,0.0720,0,U,59693,999,12266,.99560824E-3,.27238E-3,0
STARLINK-32107,2024-086N,2026-07-06T23:36:39.781728,15.27480617,.00006421,43.0018,106.4428,228.0139,132.0658,0,U,59694,999,12235,.37887411E-3,.10147E-3,0
STARLINK-32104,2024-086P,2026-07-08T10:06:52.997472,15.27572279,.00007984,43.0043,94.7759,344.3494,15.7333,0,U,59695,999,12261,.79576764E-4,.1928E-4,0
STARLINK-32094,2024-086Q,2026-07-08T22:46:49.435392,15.27581999,.00013608,43.0036,95.3919,279.2477,80.8221,0,U,59696,999,12265,.47747652E-4,.1052E-4,0
STARLINK-32099,2024-086R,2026-07-08T10:50:22.076160,15.27589315,.00014464,43.0062,97.6804,272.4931,87.5756,0,U,59697,999,12258,-.20786196E-4,-.834E-5,0
STARLINK-32096,2024-086S,2026-07-08T11:10:43.359168,15.27596031,.00010847,43.0035,97.7872,290.7726,69.3009,0,U,59698,999,12258,-.44350222E-4,-.1483E-4,0
STARLINK-32102,2024-086T,2026-07-08T10:59:37.418208,15.27592118,.00006421,43.0017,97.7319,297.3182,62.7604,0,U,59699,999,12258,.21471336E-3,.5653E-4,0
STARLINK-32092,2024-086U,2026-07-08T22:24:37.218240,15.27584948,.00015825,43.0042,95.2774,265.4244,94.6427,0,U,59700,999,12265,.2549966E-4,.44E-5,0
STARLINK-32093,2024-086V,2026-07-08T22:20:54.864384,15.27574622,.00014832,43.0069,95.2585,272.0192,88.0490,0,U,59701,999,12265,.57928393E-4,.1332E-4,0
STARLINK-32087,2024-086W,2026-07-08T11:05:10.238784,15.27596667,.00010877,43.0066,97.7556,282.8198,77.2532,0,U,59702,999,12258,-.6545375E-5,-.442E-5,0
STARLINK-32086,2024-086X,2026-07-08T22:00:01.999584,15.27596795,.00013511,42.9998,94.9563,265.9247,177.0010,0,U,59703,999,586,-.8880307E-3,-.2463E-3,0
STARLINK-32098,2024-086Y,2026-07-06T23:31:05.302272,15.27557089,.00010442,43.0023,106.4135,280.7545,79.3189,0,U,59704,999,12235,-.13378908E-3,-.3939E-4,0
STARLINK-11107 [DTC],2024-088A,2026-07-08T21:32:35.023776,15.69716543,.00006732,53.1576,88.4533,83.1252,276.9842,0,U,59708,999,12529,.2379964E-4,.2297E-4,0
STARLINK-11088 [DTC],2024-088B,2026-07-08T22:50:16.986336,15.69722625,.00023415,53.1563,88.7977,156.9028,203.2095,0,U,59709,999,12531,.4048593E-5,-.1E-5,0
